0167P         2001 05 17.8567 11.821981  0.273604  344.7716  295.7768   19.0897  20100104   9.5  2.0  167P/CINEOS                                              MPC 54367
0169P         2009 11 30.3045  0.607747  0.766797  217.9614  176.1885   11.2999  20100104  16.0  2.0  169P/NEAT                                                MPC 56805
0172P         2008 10 13.7322  2.241936  0.362978  179.3842   39.9408   11.5188  20100104  13.0  4.0  172P/Yeung                                               MPC 54825
0173P         2008 05 16.9608  4.212603  0.260768   29.6554  100.5442   16.4937  20100104   7.5  4.0  173P/Mueller                                             MPC 54987
0174P         2015 04 18.7377  5.826575  0.458018  162.6014  173.3902    4.3410  20100104   9.5  2.0  174P/Echeclus                                            CCO    17
0176P         2011 07  2.6531  2.575169  0.193455   35.9710  346.5055    0.2378  20100104  15.0  2.0  176P/LINEAR                                              CCO    17
0179P         2007 12  3.2500  4.086275  0.308873  295.4755  115.8466   19.8716  20100104   2.5  8.0  179P/Jedicke                                             MPC 66205
0180P         2008 05 27.0512  2.471904  0.357238   95.0969   84.7409   16.9036  20100104  11.0  4.0  180P/NEAT                                                MPC 62583
0183P         2008 05  7.2975  3.893296  0.134922  161.4384    5.8488   18.7369  20100104  12.5  2.0  183P/Korlevic-Juric                                      MPC 58540
0186P         2008 04 22.9446  4.279584  0.125987  282.6454  327.7730   28.8684  20100104   7.5  4.0  186P/Garradd                                             MPC 59045
0187P         2008 10 10.9078  3.695969  0.172528  132.6223  111.9998   13.7197  20100104   9.0  4.0  187P/LINEAR                                              MPC 62583
0195P         2009 01 20.6604  4.438228  0.314778  249.5837  243.2270   36.3621  20100104   8.5  4.0  195P/Hill                                                MPC 61438
0199P         2009 04  9.5980  2.934523  0.508860  191.9153   92.8785   24.7359  20100104  10.0  4.0  199P/Shoemaker                                           MPC 66205
0200P         2008 08 25.6681  3.272834  0.333581  133.8235  234.8143   12.1181  20100104   9.0  4.0  200P/Larsen                                              MPC 63139
0202P         2009 02  6.9677  2.526771  0.331034  255.5499  194.5665    2.1852  20100104  13.5  4.0  202P/Scotti                                              MPC 64116
0203P         2010 02  8.1941  3.182125  0.315069  154.5441  290.5643    2.9759  20100104  14.5  2.0  203P/Korlevic                                            MPC 63822
0211P         2009 05  7.6857  2.361882  0.337661    4.3694  117.2929   18.8712  20100104  12.5  4.0  211P/Hill                                                MPC 64768
0213P         2011 06 15.9957  2.123421  0.379743    3.2302  312.6870   10.2397  20100104  10.5  4.0  213P/Van Ness                                            MPC 65058
0215P         2010 06  7.8888  3.213460  0.200867  222.4199   75.4441   12.7911  20100104  11.0  4.0  215P/NEAT                                                MPC 67148
0217P         2009 09  8.9694  1.224011  0.689552  246.7486  125.6211   12.8815  20100104  12.0  4.0  217P/LINEAR                                              MPC 65648
0219P         2010 03  5.8344  2.364293  0.353187  107.7758  231.0714   11.5201  20100104  11.0  4.0  219P/LINEAR                                              MPC 65936
0220P         2009 12 15.4320  1.548625  0.502681  180.7575  150.1181    8.1327  20100104  15.0  4.0  220P/McNaught                                            MPC 65936
0223P         2010 08 14.7247  2.419237  0.417609   37.9245  346.8278   27.0542  20100104  12.0  4.0  223P/Skiff                                               MPC 66922
0224P         2010 01 31.8299  1.989595  0.416379   16.0912   40.5285   13.4361  20100104  15.5  4.0  224P/LINEAR-NEAT                                         MPC 66922
0226P         2009 05 11.2515  1.769207  0.529986  340.9630   54.0678   44.0212  20100104  12.5  4.0  226P/Pigott-LINEAR-Kowalski                              MPC 67148
0227P         2010 09  3.7223  1.794826  0.499869   90.1393   49.8858    6.5248  20100104  16.5  2.0  227P/Catalina-LINEAR                                     MPC 67148
0228P         2011 08 24.6820  3.430204  0.176412  114.9119   31.0709    7.9160  20100104  14.5  2.0  228P/LINEAR                                              MPC 67414
0229P         2009 08  4.2214  2.440269  0.377926  224.0181  157.9802   26.1104  20100104  13.0  4.0  229P/Gibbs                                               MPC 67685
0230P         2009 08  8.8333  1.485982  0.562902  308.7323  112.5092   14.6426  20100104  13.0  4.0  230P/LINEAR                                              MPC 67973
0231P         2011 05 17.3211  3.031875  0.246208   42.6041  133.0993   12.3289  20100104  14.5  2.0  231P/LINEAR-NEAT                                         MPC 68393
0232P         2009 10  1.4918  2.983174  0.334668   53.4226   56.1415   14.6344  20100104  11.5  4.0  232P/Hill                                                MPC 67974
    CJ95O010  1997 03 31.3492  0.908752  0.994949  130.5577  282.7984   89.2741  20100104  -2.0  4.0  C/1995 O1 (Hale-Bopp)                                    MPC 61436
    PJ96R020  2011 10 17.4742  2.612739  0.309537  334.0522   40.1905    2.6040  20100104  11.5  4.0  P/1996 R2 (Lagerkvist)                                   MPC 62882
    PJ98U030  2014 03 17.5523  2.154515  0.646988  180.9435  303.4905   19.0736  20100104   6.5  4.0  P/1998 U3 (Jager)                                        MPC 34421
    PJ98U040  2012 04 20.3650  3.851770  0.311812  251.6693  181.3875   31.6530  20100104   8.0  4.0  P/1998 U4 (Spahr)                                        MPC 65938
    PJ98V24S  2008 05 25.1717  3.422699  0.242896  244.4575  159.1698    5.0267  20100104  13.0  2.0  P/1998 VS24 (LINEAR)                                     MPC 54169
    PJ99U030  2010 07 18.4616  1.921420  0.611471  110.1262  305.9864   20.8867  20100104  13.5  4.0  P/1999 U3 (LINEAR)                                       MPC 59600
    PJ99X69B  2009 07 25.8986  1.652056  0.630821  220.3234  256.0484   11.3058  20100104  17.5  2.0  P/1999 XB69 (LINEAR)                                     MPC 56804
    PJ99XC0N  2008 11 12.3926  3.303667  0.211209  161.5865  285.4414    5.0250  20100104  13.5  2.0  P/1999 XN120 (Catalina)                                  MPC 54170
    PK00Y030  2012 01  6.1384  3.935693  0.204279   90.3891  354.3342    2.2676  20100104   9.0  4.0  P/2000 Y3 (Scotti)                                       MPC 65937
    PK01R060  2010 03 26.1195  2.178615  0.477875  308.4436   67.3328   17.3853  20100104  13.0  4.0  P/2001 R6 (LINEAR-Skiff)                                 MPC 59599
    PK02Q010  2009 03 20.9758  1.551434  0.563929  185.0407  173.9937   36.2802  20100104  13.0  4.0  P/2002 Q1 (Van Ness)                                     MPC 56803
    CK02V94Q  2006 02  6.2493  6.796477  0.963844  100.0490   34.9913   70.5828  20100104   9.5  2.0  C/2002 VQ94 (LINEAR)                                     MPC 59874
    PK02X020  2010 10  4.7462  2.127361  0.449987  351.7898   75.0111   23.5326  20100104  12.0  4.0  P/2002 X2 (NEAT)                                         MPC 59600
    PK03H15T  2013 03 17.9549  2.688217  0.418040  124.2324   81.4461   27.6479  20100104  14.0  2.0  P/2003 HT15 (LINEAR)                                     MPC 49277
    PK03S020  2011 03  4.1712  2.455233  0.359086  284.0283   87.7518    7.6372  20100104  12.5  4.0  P/2003 S2 (NEAT)                                         MPC 62880
    PK03UR5Y  2010 09  9.5824  1.830950  0.508972  119.3539  245.6878   16.3327  20100104  14.0  4.0  P/2003 UY275 (LINEAR)                                    MPC 59600
    CK03W42T  2006 04  9.5855  5.187108  0.999085   92.3961   48.4378   31.4442  20100104  11.5  2.0  C/2003 WT42 (LINEAR)                                     MPC 56169
    PK04A010  2004 09  3.9911  5.486909  0.310081   21.8410  124.9744   10.5515  20100104   6.5  4.0  P/2004 A1 (LONEOS)                                       MPC 60921
    CK04B010  2006 02  7.5560  1.608429  1.001207  328.0408  272.8732  114.0880  20100104  10.5  2.0  C/2004 B1 (LINEAR)                                       MPC 57131
    CK04D010  2006 02  9.7505  4.972244  0.998209   75.4933   62.2350   45.5753  20100104  11.5  2.0  C/2004 D1 (NEAT)                                         MPC 63599
    PK04F030  2013 01 29.1869  2.873608  0.285649  176.4275   78.8178   15.9778  20100104   9.0  4.0  P/2004 F3 (NEAT)                                         MPC 57793
    PK04FE0Y  2004 07 31.5664  4.110941  0.166943  239.4604  327.1793    2.1266  20100104  12.5  2.0  P/2004 FY140 (LINEAR)                                    MPC 54823
    PK04H18C  2010 12 29.5782  1.713755  0.509311   30.9829  219.4946   23.4905  20100104  16.5  2.0  P/2004 HC18 (LINEAR)                                     MPC 59601
    PK04R010  2010 02 23.6562  0.985688  0.682744    0.6859  295.9647    4.8937  20100104  18.5  4.0  P/2004 R1 (McNaught)                                     MPC 59598
    CK05EH3L  2007 03  5.0279  3.888912  1.001540  261.4873  344.8129  130.6735  20100104  11.5  2.0  C/2005 EL173 (LONEOS)                                    MPC 61702
    PK05J05Q  2009 12 28.8496  0.823087  0.694235  222.7430   95.8324    5.6954  20100104  17.5  4.0  P/2005 JQ5 (Catalina)                                    MPC 56805
    PK05L010  2013 11 23.2160  3.150444  0.208535  149.9551  138.3037    7.7358  20100104   9.5  4.0  P/2005 L1 (McNaught)                                     MPC 54559
    CK05L030  2008 01 16.9371  5.594782  1.000916   47.1949  288.7575  139.4477  20100104   4.0  4.0  C/2005 L3 (McNaught)                                     MPC 59596
